ORBCOMM FM115           
1 41186U 15081H   25300.23152957  .00001081  00000+0  24404-3 0  9995
2 41186  46.9968 131.4383 0001216 290.0516  70.0240 14.62778300527106
ORBCOMM FM108           
1 41187U 15081J   25300.47241612  .00001515  00000+0  35973-3 0  9994
2 41187  47.0045 202.1369 0002373 214.6370 145.4362 14.58440738526107
ORBCOMM FM117           
1 41188U 15081K   25300.43870355  .00001501  00000+0  35677-3 0  9999
2 41188  47.0009 201.0152 0003013 223.2267 136.8383 14.58441785526143
ORBCOMM FM116           
1 41189U 15081L   25300.35260139  .00001350  00000+0  32410-3 0  9998
2 41189  47.0024 291.2121 0001436  13.1381 346.9542 14.58513828524943
